IRIDIUM 39              
1 25042U 97069D   25231.92697715  .00000611  00000+0  15442-3 0  9999
2 25042  86.3967 183.8214 0020169  93.2491 267.1021 14.49284074458196
IRIDIUM 38              
1 25043U 97069E   25231.90279866  .00000399  00000+0  12505-3 0  9991
2 25043  86.3976 206.3549 0000784 142.6409 217.4843 14.38161114455114
IRIDIUM 42              
1 25077U 97077A   25231.91763303  .00000402  00000+0  13060-3 0  9994
2 25077  86.3968 212.5929 0001493  88.5725 271.5643 14.36392968450340
IRIDIUM 44              
1 25078U 97077B   25231.90851969  .00000428  00000+0  12889-3 0  9996
2 25078  86.3999 194.3682 0002937 127.6202 232.5265 14.40284952452872
IRIDIUM 45              
1 25104U 97082A   25231.90951715  .00023368  00000+0  78558-3 0  9995
2 25104  86.3586  16.8930 0113875  92.6500 268.7787 15.24559332461740
IRIDIUM 24              
1 25105U 97082B   25231.93822309  .00000460  00000+0  13382-3 0  9997
2 25105  86.3865  53.2391 0009890 219.1874 140.8611 14.42147914452405
IRIDIUM 51              
1 25262U 98018A   25231.90471713  .00037776  00000+0  73899-3 0  9996
2 25262  86.3818  24.1758 0078856   5.5298 354.6808 15.43840818456846
IRIDIUM 57              
1 25273U 98019B   25231.79559439  .00000270  00000+0  86452-4 0  9997
2 25273  86.3963 118.6199 0002068  87.6353 272.5081 14.35928867433917
